[{"OBJECT_NAME":"STARLINK-5906","OBJECT_ID":"2023-037BA","EPOCH":"2026-03-09T21:59:01.733856","MEAN_MOTION":14.98328179,"ECCENTRICITY":0.00026796,"INCLINATION":69.9984,"RA_OF_ASC_NODE":264.0177,"ARG_OF_PERICENTER":261.8106,"MEAN_ANOMALY":98.2749,"EPHEMERIS_TYPE":0,"CLASSIFICATION_TYPE":"U","NORAD_CAT_ID":55962,"ELEMENT_SET_NO":999,"REV_AT_EPOCH":16450,"BSTAR":-1.06104e-6,"MEAN_MOTION_DOT":-1.06e-6,"MEAN_MOTION_DDOT":0},{"OBJECT_NAME":"ORBCOMM FM02","OBJECT_ID":"1995-017B","EPOCH":"2026-03-09T15:14:02.878656","MEAN_MOTION":14.96738099,"ECCENTRICITY":0.0008676,"INCLINATION":69.9626,"RA_OF_ASC_NODE":148.0696,"ARG_OF_PERICENTER":276.2558,"MEAN_ANOMALY":83.7611,"EPHEMERIS_TYPE":0,"CLASSIFICATION_TYPE":"U","NORAD_CAT_ID":23546,"ELEMENT_SET_NO":999,"REV_AT_EPOCH":65179,"BSTAR":0.00080978,"MEAN_MOTION_DOT":9.2e-5,"MEAN_MOTION_DDOT":0}]
